*******************************************************************************
Ephemeris / WWW_USER Fri Mar  7 10:41:15 2025 Pasadena, USA      / Horizons    
*******************************************************************************
Target body name: (2018 TC)                       {source: JPL#10}
Center body name: Earth (399)                     {source: DE441}
Center-site name: Mauna Kea
*******************************************************************************
Start time      : A.D. 2018-Aug-09 05:04:00.0000 UT      
Stop  time      : A.D. 2018-Aug-09 15:50:00.0000 UT      
Step-size       : 1 minutes
*******************************************************************************
Target pole/equ : undefined
Target radii    : undefined                                                    
Center geodetic : 204.5278, 19.8260847, 4.21024   {E-lon(deg),Lat(deg),Alt(km)}
Center cylindric: 204.5278, 6006.35451, 2151.0229 {E-lon(deg),Dxy(km),Dz(km)}
Center pole/equ : ITRF93                          {East-longitude positive}
Center radii    : 6378.137, 6378.137, 6356.752 km {Equator_a, b, pole_c}       
Target primary  : Sun
Vis. interferer : MOON (R_eq= 1737.400) km        {source: DE441}
Rel. light bend : Sun                             {source: DE441}
Rel. lght bnd GM: 1.3271E+11 km^3/s^2                                          
Small-body perts: Yes                             {source: SB441-N16}
Atmos refraction: NO (AIRLESS)
RA format       : HMS
Time format     : CAL 
Calendar mode   : Mixed Julian/Gregorian
RTS-only print  : NO       
EOP file        : eop.250306.p250602                                           
EOP coverage    : DATA-BASED 1962-JAN-20 TO 2025-MAR-06. PREDICTS-> 2025-JUN-01
Units conversion: 1 au= 149597870.700 km, c= 299792.458 km/s, 1 day= 86400.0 s 
Table cut-offs 1: Elevation (-90.0deg=NO ),Airmass (>38.000=NO), Daylight (YES)
Table cut-offs 2: Solar elongation (  0.0,180.0=NO ),Local Hour Angle( 0.0=NO )
Table cut-offs 3: RA/DEC angular rate (     0.0=NO )                           
*******************************************************************************
Initial IAU76/J2000 heliocentric ecliptic osculating elements (au, days, deg.):
  EPOCH=  2458399.5 ! 2018-Oct-08.00 (TDB)         Residual RMS= .20211        
   EC= .2253304451868516   QR= .9525668516843322   TP= 2458354.2554697809      
   OM= 188.9146441926015   W=  135.2493409557404   IN= 3.631837316097226       
  Equivalent ICRF heliocentric cartesian coordinates (au, au/d):
   X= 9.874490534016482E-01  Y= 2.414303737329446E-01  Z= 9.746991415829437E-02
  VX=-1.955204385424240E-03 VY= 1.722364762632024E-02 VZ= 6.197883797821973E-03
Asteroid physical parameters (km, seconds, rotational period in hours):        
   GM= n.a.                RAD= n.a.               ROTPER= n.a.                
   H= 26.6                 G= .150                 B-V= n.a.                   
                           ALBEDO= n.a.            STYP= n.a.                  
*******************************************************************************
 Date__(UT)__HR:MN     R.A._________(ICRF)_________DEC
******************************************************
$$SOE
 2018-Aug-09 07:07     13 36 00.636705 +05 10 33.05527
 2018-Aug-09 07:08     13 36 00.696366 +05 10 32.89852
 2018-Aug-09 07:09     13 36 00.756080 +05 10 32.74173
 2018-Aug-09 07:10     13 36 00.815848 +05 10 32.58492
 2018-Aug-09 07:11     13 36 00.875670 +05 10 32.42807
 2018-Aug-09 07:12     13 36 00.935546 +05 10 32.27120
 2018-Aug-09 07:13     13 36 00.995476 +05 10 32.11429
 2018-Aug-09 07:14     13 36 01.055460 +05 10 31.95736
 2018-Aug-09 07:15     13 36 01.115499 +05 10 31.80040
 2018-Aug-09 07:16     13 36 01.175592 +05 10 31.64341
 2018-Aug-09 07:17     13 36 01.235740 +05 10 31.48639
 2018-Aug-09 07:18     13 36 01.295942 +05 10 31.32935
 2018-Aug-09 07:19     13 36 01.356199 +05 10 31.17228
 2018-Aug-09 07:20     13 36 01.416511 +05 10 31.01518
 2018-Aug-09 07:21     13 36 01.476878 +05 10 30.85805
 2018-Aug-09 07:22     13 36 01.537299 +05 10 30.70090
 2018-Aug-09 07:23     13 36 01.597776 +05 10 30.54372
 2018-Aug-09 07:24     13 36 01.658309 +05 10 30.38651
 2018-Aug-09 07:25     13 36 01.718896 +05 10 30.22929
 2018-Aug-09 07:26     13 36 01.779539 +05 10 30.07203
 2018-Aug-09 07:27     13 36 01.840237 +05 10 29.91475
 2018-Aug-09 07:28     13 36 01.900992 +05 10 29.75745
 2018-Aug-09 07:29     13 36 01.961801 +05 10 29.60012
 2018-Aug-09 07:30     13 36 02.022667 +05 10 29.44277
 2018-Aug-09 07:31     13 36 02.083588 +05 10 29.28539
 2018-Aug-09 07:32     13 36 02.144566 +05 10 29.12799
 2018-Aug-09 07:33     13 36 02.205599 +05 10 28.97057
 2018-Aug-09 07:34     13 36 02.266689 +05 10 28.81313
 2018-Aug-09 07:35     13 36 02.327835 +05 10 28.65566
 2018-Aug-09 07:36     13 36 02.389037 +05 10 28.49818
 2018-Aug-09 07:37     13 36 02.450295 +05 10 28.34067
 2018-Aug-09 07:38     13 36 02.511610 +05 10 28.18314
 2018-Aug-09 07:39     13 36 02.572982 +05 10 28.02559
 2018-Aug-09 07:40     13 36 02.634410 +05 10 27.86802
 2018-Aug-09 07:41     13 36 02.695895 +05 10 27.71042
 2018-Aug-09 07:42     13 36 02.757437 +05 10 27.55281
 2018-Aug-09 07:43     13 36 02.819035 +05 10 27.39518
 2018-Aug-09 07:44     13 36 02.880691 +05 10 27.23753
 2018-Aug-09 07:45     13 36 02.942404 +05 10 27.07986
 2018-Aug-09 07:46     13 36 03.004173 +05 10 26.92218
 2018-Aug-09 07:47     13 36 03.066000 +05 10 26.76447
 2018-Aug-09 07:48     13 36 03.127884 +05 10 26.60675
 2018-Aug-09 07:49     13 36 03.189826 +05 10 26.44901
 2018-Aug-09 07:50     13 36 03.251824 +05 10 26.29125
 2018-Aug-09 07:51     13 36 03.313880 +05 10 26.13347
 2018-Aug-09 07:52     13 36 03.375994 +05 10 25.97568
 2018-Aug-09 07:53     13 36 03.438165 +05 10 25.81787
 2018-Aug-09 07:54     13 36 03.500394 +05 10 25.66005
 2018-Aug-09 07:55     13 36 03.562681 +05 10 25.50221
 2018-Aug-09 07:56     13 36 03.625025 +05 10 25.34436
 2018-Aug-09 07:57     13 36 03.687428 +05 10 25.18649
 2018-Aug-09 07:58     13 36 03.749888 +05 10 25.02860
 2018-Aug-09 07:59     13 36 03.812406 +05 10 24.87070
 2018-Aug-09 08:00     13 36 03.874982 +05 10 24.71279
 2018-Aug-09 08:01     13 36 03.937616 +05 10 24.55487
 2018-Aug-09 08:02     13 36 04.000308 +05 10 24.39693
 2018-Aug-09 08:03     13 36 04.063058 +05 10 24.23898
 2018-Aug-09 08:04     13 36 04.125867 +05 10 24.08101
 2018-Aug-09 08:05     13 36 04.188734 +05 10 23.92304
 2018-Aug-09 08:06     13 36 04.251659 +05 10 23.76505
 2018-Aug-09 08:07     13 36 04.314643 +05 10 23.60705
 2018-Aug-09 08:08     13 36 04.377685 +05 10 23.44904
 2018-Aug-09 08:09     13 36 04.440785 +05 10 23.29102
 2018-Aug-09 08:10     13 36 04.503944 +05 10 23.13299
 2018-Aug-09 08:11     13 36 04.567162 +05 10 22.97495
 2018-Aug-09 08:12     13 36 04.630438 +05 10 22.81689
 2018-Aug-09 08:13     13 36 04.693773 +05 10 22.65883
 2018-Aug-09 08:14     13 36 04.757166 +05 10 22.50076
 2018-Aug-09 08:15     13 36 04.820619 +05 10 22.34268
 2018-Aug-09 08:16     13 36 04.884130 +05 10 22.18460
 2018-Aug-09 08:17     13 36 04.947699 +05 10 22.02650
 2018-Aug-09 08:18     13 36 05.011328 +05 10 21.86840
 2018-Aug-09 08:19     13 36 05.075016 +05 10 21.71029
 2018-Aug-09 08:20     13 36 05.138762 +05 10 21.55217
 2018-Aug-09 08:21     13 36 05.202568 +05 10 21.39405
 2018-Aug-09 08:22     13 36 05.266432 +05 10 21.23592
 2018-Aug-09 08:23     13 36 05.330355 +05 10 21.07778
 2018-Aug-09 08:24     13 36 05.394338 +05 10 20.91964
 2018-Aug-09 08:25     13 36 05.458380 +05 10 20.76149
 2018-Aug-09 08:26     13 36 05.522480 +05 10 20.60334
 2018-Aug-09 08:27     13 36 05.586640 +05 10 20.44518
 2018-Aug-09 08:28     13 36 05.650859 +05 10 20.28702
 2018-Aug-09 08:29     13 36 05.715137 +05 10 20.12885
 2018-Aug-09 08:30     13 36 05.779475 +05 10 19.97068
 2018-Aug-09 08:31     13 36 05.843871 +05 10 19.81251
 2018-Aug-09 08:32     13 36 05.908327 +05 10 19.65434
 2018-Aug-09 08:33     13 36 05.972842 +05 10 19.49616
 2018-Aug-09 08:34     13 36 06.037417 +05 10 19.33798
 2018-Aug-09 08:35     13 36 06.102051 +05 10 19.17980
 2018-Aug-09 08:36     13 36 06.166744 +05 10 19.02161
 2018-Aug-09 08:37     13 36 06.231496 +05 10 18.86343
 2018-Aug-09 08:38     13 36 06.296308 +05 10 18.70524
 2018-Aug-09 08:39     13 36 06.361179 +05 10 18.54706
 2018-Aug-09 08:40     13 36 06.426110 +05 10 18.38887
 2018-Aug-09 08:41     13 36 06.491100 +05 10 18.23068
 2018-Aug-09 08:42     13 36 06.556149 +05 10 18.07250
 2018-Aug-09 08:43     13 36 06.621258 +05 10 17.91431
 2018-Aug-09 08:44     13 36 06.686426 +05 10 17.75613
 2018-Aug-09 08:45     13 36 06.751654 +05 10 17.59795
 2018-Aug-09 08:46     13 36 06.816941 +05 10 17.43977
 2018-Aug-09 08:47     13 36 06.882288 +05 10 17.28159
 2018-Aug-09 08:48     13 36 06.947694 +05 10 17.12341
 2018-Aug-09 08:49     13 36 07.013159 +05 10 16.96524
 2018-Aug-09 08:50     13 36 07.078684 +05 10 16.80707
 2018-Aug-09 08:51     13 36 07.144269 +05 10 16.64891
 2018-Aug-09 08:52     13 36 07.209913 +05 10 16.49074
 2018-Aug-09 08:53     13 36 07.275616 +05 10 16.33259
 2018-Aug-09 08:54     13 36 07.341379 +05 10 16.17444
 2018-Aug-09 08:55     13 36 07.407201 +05 10 16.01629
 2018-Aug-09 08:56     13 36 07.473082 +05 10 15.85815
 2018-Aug-09 08:57     13 36 07.539023 +05 10 15.70001
 2018-Aug-09 08:58     13 36 07.605024 +05 10 15.54188
 2018-Aug-09 08:59     13 36 07.671084 +05 10 15.38375
 2018-Aug-09 09:00     13 36 07.737203 +05 10 15.22564
 2018-Aug-09 09:01     13 36 07.803382 +05 10 15.06753
 2018-Aug-09 09:02     13 36 07.869620 +05 10 14.90942
 2018-Aug-09 09:03     13 36 07.935917 +05 10 14.75133
 2018-Aug-09 09:04     13 36 08.002274 +05 10 14.59324
 2018-Aug-09 09:05     13 36 08.068690 +05 10 14.43516
 2018-Aug-09 09:06     13 36 08.135165 +05 10 14.27709
 2018-Aug-09 09:07  s  13 36 08.201700 +05 10 14.11903
 2018-Aug-09 09:08     13 36 08.268294 +05 10 13.96098
 2018-Aug-09 09:09     13 36 08.334947 +05 10 13.80294
